[{"OBJECT_NAME":"SL-14 R/B","OBJECT_ID":"1986-006B","EPOCH":"2026-04-27T05:51:42.881184","MEAN_MOTION":14.86893595,"ECCENTRICITY":0.00778847,"INCLINATION":82.5292,"RA_OF_ASC_NODE":214.0429,"ARG_OF_PERICENTER":111.4086,"MEAN_ANOMALY":249.5463,"EPHEMERIS_TYPE":0,"CLASSIFICATION_TYPE":"U","NORAD_CAT_ID":16496,"ELEMENT_SET_NO":999,"REV_AT_EPOCH":15642,"BSTAR":7.6615561e-5,"MEAN_MOTION_DOT":7.51e-6,"MEAN_MOTION_DDOT":0},{"OBJECT_NAME":"COSMOS 1743","OBJECT_ID":"1986-034A","EPOCH":"2026-04-27T04:17:47.512896","MEAN_MOTION":15.6276647,"ECCENTRICITY":0.00074848,"INCLINATION":82.5325,"RA_OF_ASC_NODE":22.7805,"ARG_OF_PERICENTER":101.0289,"MEAN_ANOMALY":259.1812,"EPHEMERIS_TYPE":0,"CLASSIFICATION_TYPE":"U","NORAD_CAT_ID":16719,"ELEMENT_SET_NO":999,"REV_AT_EPOCH":18781,"BSTAR":0.00060844727,"MEAN_MOTION_DOT":0.00055006,"MEAN_MOTION_DDOT":0},{"OBJECT_NAME":"SL-14 R/B","OBJECT_ID":"1986-046B","EPOCH":"2026-04-27T05:38:08.225952","MEAN_MOTION":14.85635754,"ECCENTRICITY":0.00246007,"INCLINATION":82.4846,"RA_OF_ASC_NODE":34.3143,"ARG_OF_PERICENTER":68.9468,"MEAN_ANOMALY":291.4375,"EPHEMERIS_TYPE":0,"CLASSIFICATION_TYPE":"U","NORAD_CAT_ID":16792,"ELEMENT_SET_NO":999,"REV_AT_EPOCH":13361,"BSTAR":5.4391556e-5,"MEAN_MOTION_DOT":4.98e-6,"MEAN_MOTION_DDOT":0},{"OBJECT_NAME":"SL-14 R/B","OBJECT_ID":"1986-055B","EPOCH":"2026-04-27T07:33:09.494208","MEAN_MOTION":14.85684107,"ECCENTRICITY":0.00191739,"INCLINATION":82.5189,"RA_OF_ASC_NODE":80.9536,"ARG_OF_PERICENTER":166.5832,"MEAN_ANOMALY":354.3595,"EPHEMERIS_TYPE":0,"CLASSIFICATION_TYPE":"U","NORAD_CAT_ID":16882,"ELEMENT_SET_NO":999,"REV_AT_EPOCH":12658,"BSTAR":5.3383256e-5,"MEAN_MOTION_DOT":4.89e-6,"MEAN_MOTION_DDOT":0},{"OBJECT_NAME":"AJISAI (EGS)","OBJECT_ID":"1986-061A","EPOCH":"2026-04-27T07:09:12.498048","MEAN_MOTION":12.44516023,"ECCENTRICITY":0.00114283,"INCLINATION":50.0098,"RA_OF_ASC_NODE":303.8796,"ARG_OF_PERICENTER":51.6327,"MEAN_ANOMALY":3.68,"EPHEMERIS_TYPE":0,"CLASSIFICATION_TYPE":"U","NORAD_CAT_ID":16908,"ELEMENT_SET_NO":999,"REV_AT_EPOCH":47405,"BSTAR":0.00013999851,"MEAN_MOTION_DOT":-7.8e-7,"MEAN_MOTION_DDOT":0},{"OBJECT_NAME":"SL-14 R/B","OBJECT_ID":"1987-024B","EPOCH":"2026-04-27T06:00:50.099904","MEAN_MOTION":14.86176738,"ECCENTRICITY":0.00198047,"INCLINATION":82.53,"RA_OF_ASC_NODE":47.1182,"ARG_OF_PERICENTER":99.0765,"MEAN_ANOMALY":261.2694,"EPHEMERIS_TYPE":0,"CLASSIFICATION_TYPE":"U","NORAD_CAT_ID":17567,"ELEMENT_SET_NO":999,"REV_AT_EPOCH":9534,"BSTAR":5.2812199e-5,"MEAN_MOTION_DOT":4.9e-6,"MEAN_MOTION_DDOT":0},{"OBJECT_NAME":"COSMOS 1833","OBJECT_ID":"1987-027A","EPOCH":"2026-04-27T06:44:16.150272","MEAN_MOTION":14.13033414,"ECCENTRICITY":0.00223985,"INCLINATION":70.9163,"RA_OF_ASC_NODE":223.8783,"ARG_OF_PERICENTER":139.1393,"MEAN_ANOMALY":221.1413,"EPHEMERIS_TYPE":0,"CLASSIFICATION_TYPE":"U","NORAD_CAT_ID":17589,"ELEMENT_SET_NO":999,"REV_AT_EPOCH":1718,"BSTAR":-8.3822024e-5,"MEAN_MOTION_DOT":-2.05e-6,"MEAN_MOTION_DDOT":0},{"OBJECT_NAME":"SL-16 R/B","OBJECT_ID":"1987-027B","EPOCH":"2026-04-27T04:24:35.652672","MEAN_MOTION":14.17171788,"ECCENTRICITY":0.00037078,"INCLINATION":71.0024,"RA_OF_ASC_NODE":174.3062,"ARG_OF_PERICENTER":23.3156,"MEAN_ANOMALY":336.8135,"EPHEMERIS_TYPE":0,"CLASSIFICATION_TYPE":"U","NORAD_CAT_ID":17590,"ELEMENT_SET_NO":999,"REV_AT_EPOCH":2221,"BSTAR":0.00011729993,"MEAN_MOTION_DOT":1.89e-6,"MEAN_MOTION_DDOT":0},{"OBJECT_NAME":"SL-14 R/B","OBJECT_ID":"1987-038B","EPOCH":"2026-04-26T20:47:22.081056","MEAN_MOTION":14.85411142,"ECCENTRICITY":0.0019397,"INCLINATION":82.5006,"RA_OF_ASC_NODE":251.4095,"ARG_OF_PERICENTER":9.9713,"MEAN_ANOMALY":350.1883,"EPHEMERIS_TYPE":0,"CLASSIFICATION_TYPE":"U","NORAD_CAT_ID":17912,"ELEMENT_SET_NO":999,"REV_AT_EPOCH":8638,"BSTAR":4.7852e-5,"MEAN_MOTION_DOT":4.37e-6,"MEAN_MOTION_DDOT":0},{"OBJECT_NAME":"COSMOS 1844","OBJECT_ID":"1987-041A","EPOCH":"2026-04-27T04:37:58.972224","MEAN_MOTION":14.14559831,"ECCENTRICITY":0.00328192,"INCLINATION":70.898,"RA_OF_ASC_NODE":291.8693,"ARG_OF_PERICENTER":306.9835,"MEAN_ANOMALY":52.8283,"EPHEMERIS_TYPE":0,"CLASSIFICATION_TYPE":"U","NORAD_CAT_ID":17973,"ELEMENT_SET_NO":999,"REV_AT_EPOCH":1044,"BSTAR":-0.00013122943,"MEAN_MOTION_DOT":-3.02e-6,"MEAN_MOTION_DDOT":0},{"OBJECT_NAME":"SL-14 R/B","OBJECT_ID":"1987-055B","EPOCH":"2026-04-27T05:43:51.487968","MEAN_MOTION":14.85670422,"ECCENTRICITY":0.00198419,"INCLINATION":82.4966,"RA_OF_ASC_NODE":303.2663,"ARG_OF_PERICENTER":209.4479,"MEAN_ANOMALY":150.5621,"EPHEMERIS_TYPE":0,"CLASSIFICATION_TYPE":"U","NORAD_CAT_ID":18153,"ELEMENT_SET_NO":999,"REV_AT_EPOCH":7714,"BSTAR":5.2954194e-5,"MEAN_MOTION_DOT":4.84e-6,"MEAN_MOTION_DDOT":0},{"OBJECT_NAME":"COSMOS 1867","OBJECT_ID":"1987-060A","EPOCH":"2026-04-27T06:35:05.326080","MEAN_MOTION":14.31509912,"ECCENTRICITY":0.0015432,"INCLINATION":65.0097,"RA_OF_ASC_NODE":170.6425,"ARG_OF_PERICENTER":281.0422,"MEAN_ANOMALY":78.8926,"EPHEMERIS_TYPE":0,"CLASSIFICATION_TYPE":"U","NORAD_CAT_ID":18187,"ELEMENT_SET_NO":999,"REV_AT_EPOCH":2689,"BSTAR":2.5998954e-5,"MEAN_MOTION_DOT":-3.1e-7,"MEAN_MOTION_DDOT":0},{"OBJECT_NAME":"SL-14 R/B","OBJECT_ID":"1988-001B","EPOCH":"2026-04-27T02:27:57.212064","MEAN_MOTION":14.85571298,"ECCENTRICITY":0.00196288,"INCLINATION":82.5121,"RA_OF_ASC_NODE":149.8351,"ARG_OF_PERICENTER":79.4855,"MEAN_ANOMALY":280.8571,"EPHEMERIS_TYPE":0,"CLASSIFICATION_TYPE":"U","NORAD_CAT_ID":18749,"ELEMENT_SET_NO":999,"REV_AT_EPOCH":4921,"BSTAR":4.0954262e-5,"MEAN_MOTION_DOT":3.8e-6,"MEAN_MOTION_DDOT":0},{"OBJECT_NAME":"COSMOS 1933","OBJECT_ID":"1988-020A","EPOCH":"2026-04-27T07:10:38.297568","MEAN_MOTION":15.18404855,"ECCENTRICITY":0.00048341,"INCLINATION":82.5157,"RA_OF_ASC_NODE":202.811,"ARG_OF_PERICENTER":49.274,"MEAN_ANOMALY":310.8914,"EPHEMERIS_TYPE":0,"CLASSIFICATION_TYPE":"U","NORAD_CAT_ID":18958,"ELEMENT_SET_NO":999,"REV_AT_EPOCH":5760,"BSTAR":0.00021619136,"MEAN_MOTION_DOT":4.477e-5,"MEAN_MOTION_DDOT":0},{"OBJECT_NAME":"SL-3 R/B","OBJECT_ID":"1988-032B","EPOCH":"2026-04-27T05:52:35.302656","MEAN_MOTION":15.20403217,"ECCENTRICITY":0.00274559,"INCLINATION":97.5234,"RA_OF_ASC_NODE":100.3625,"ARG_OF_PERICENTER":66.5506,"MEAN_ANOMALY":293.8611,"EPHEMERIS_TYPE":0,"CLASSIFICATION_TYPE":"U","NORAD_CAT_ID":19046,"ELEMENT_SET_NO":999,"REV_AT_EPOCH":5948,"BSTAR":0.0002795432,"MEAN_MOTION_DOT":6.082e-5,"MEAN_MOTION_DDOT":0},{"OBJECT_NAME":"SL-16 R/B","OBJECT_ID":"1988-039B","EPOCH":"2026-04-27T00:51:26.696160","MEAN_MOTION":14.19624001,"ECCENTRICITY":0.0024061,"INCLINATION":71.0151,"RA_OF_ASC_NODE":326.3215,"ARG_OF_PERICENTER":266.1314,"MEAN_ANOMALY":93.706,"EPHEMERIS_TYPE":0,"CLASSIFICATION_TYPE":"U","NORAD_CAT_ID":19120,"ELEMENT_SET_NO":999,"REV_AT_EPOCH":96524,"BSTAR":9.3722235e-5,"MEAN_MOTION_DOT":1.5e-6,"MEAN_MOTION_DDOT":0},{"OBJECT_NAME":"COSMOS 1953","OBJECT_ID":"1988-050A","EPOCH":"2026-04-27T01:22:52.907520","MEAN_MOTION":15.29232459,"ECCENTRICITY":0.00092694,"INCLINATION":82.5047,"RA_OF_ASC_NODE":109.5607,"ARG_OF_PERICENTER":321.6062,"MEAN_ANOMALY":38.4517,"EPHEMERIS_TYPE":0,"CLASSIFICATION_TYPE":"U","NORAD_CAT_ID":19210,"ELEMENT_SET_NO":999,"REV_AT_EPOCH":4517,"BSTAR":0.00029543465,"MEAN_MOTION_DOT":8.42e-5,"MEAN_MOTION_DDOT":0}]
