SL-14 R/B               
1 16496U 86006B   26117.24424631  .00000751  00000+0  76616-4 0  9991
2 16496  82.5292 214.0429 0077884 111.4086 249.5463 14.86893595156422
COSMOS 1743             
1 16719U 86034A   26117.17902214  .00055006  00000+0  60845-3 0  9999
2 16719  82.5325  22.7805 0007484 101.0289 259.1812 15.62766470187816
SL-14 R/B               
1 16792U 86046B   26117.23481743  .00000498  00000+0  54392-4 0  9995
2 16792  82.4846  34.3143 0024600  68.9468 291.4375 14.85635754133613
SL-14 R/B               
1 16882U 86055B   26117.31469322  .00000489  00000+0  53383-4 0  9992
2 16882  82.5189  80.9536 0019173 166.5832 354.3595 14.85684107126583
AJISAI (EGS)            
1 16908U 86061A   26117.29806132 -.00000078  00000+0  14000-3 0  9996
2 16908  50.0098 303.8796 0011428  51.6327   3.6800 12.44516023474059
SL-14 R/B               
1 17567U 87024B   26117.25057986  .00000490  00000+0  52812-4 0  9990
2 17567  82.5300  47.1182 0019804  99.0765 261.2694 14.86176738 95349
COSMOS 1833             
1 17589U 87027A   26117.28074248 -.00000205  00000+0 -83822-4 0  9991
2 17589  70.9163 223.8783 0022398 139.1393 221.1413 14.13033414 17189
SL-16 R/B               
1 17590U 87027B   26117.18374598  .00000189  00000+0  11730-3 0  9990
2 17590  71.0024 174.3062 0003707  23.3156 336.8135 14.17171788 22219
SL-14 R/B               
1 17912U 87038B   26116.86622779  .00000437  00000+0  47852-4 0  9992
2 17912  82.5006 251.4095 0019397   9.9713 350.1883 14.85411142 86381
COSMOS 1844             
1 17973U 87041A   26117.19304366 -.00000302  00000+0 -13123-3 0  9995
2 17973  70.8980 291.8693 0032819 306.9835  52.8283 14.14559831 10444
SL-14 R/B               
1 18153U 87055B   26117.23879037  .00000484  00000+0  52954-4 0  9993
2 18153  82.4966 303.2663 0019841 209.4479 150.5621 14.85670422 77144
COSMOS 1867             
1 18187U 87060A   26117.27436720 -.00000031  00000+0  25999-4 0  9996
2 18187  65.0097 170.6425 0015432 281.0422  78.8926 14.31509912 26893
SL-14 R/B               
1 18749U 88001B   26117.10274551  .00000380  00000+0  40954-4 0  9994
2 18749  82.5121 149.8351 0019628  79.4855 280.8571 14.85571298 49212
COSMOS 1933             
1 18958U 88020A   26117.29905437  .00004477  00000+0  21619-3 0  9998
2 18958  82.5157 202.8110 0004834  49.2740 310.8914 15.18404855 57605
SL-3 R/B                
1 19046U 88032B   26117.24485304  .00006082  00000+0  27954-3 0  9993
2 19046  97.5234 100.3625 0027455  66.5506 293.8611 15.20403217 59481
SL-16 R/B               
1 19120U 88039B   26117.03572565  .00000150  00000+0  93722-4 0  9993
2 19120  71.0151 326.3215 0024061 266.1314  93.7060 14.19624001965247
COSMOS 1953             
1 19210U 88050A   26117.05755680  .00008420  00000+0  29543-3 0  9996
2 19210  82.5047 109.5607 0009269 321.6062  38.4517 15.29232459 45172
